[
  {
    "OBJECTID": 292,
    "ZIPCODE": 10038,
    "BOROUGH": "M",
    "DOG_AREA_T": "Dog Run",
    "NAME": "Fishbridge Garden Dog Run",
    "SEATING": "",
    "SURFACE": "Stone",
    "FEATURESTA": "Active",
    "NEIGHBORHOOD": "Downtown"
  },
  {
    "OBJECTID": 318,
    "ZIPCODE": 11360,
    "BOROUGH": "Q",
    "DOG_AREA_T": "Dog Run",
    "NAME": "Little Bay Park Dog Run",
    "SEATING": "",
    "SURFACE": "Sand",
    "FEATURESTA": "Active",
    "NEIGHBORHOOD": "Clear View"
  },
  {
    "OBJECTID": 375,
    "ZIPCODE": 10471,
    "BOROUGH": "X",
    "DOG_AREA_T": "Dog Run",
    "NAME": "Canine Court Dog Run",
    "SEATING": "",
    "SURFACE": "Natural",
    "FEATURESTA": "Active",
    "NEIGHBORHOOD": "Fieldston"
  },
  {
    "OBJECTID": 311,
    "ZIPCODE": 10009,
    "BOROUGH": "M",
    "DOG_AREA_T": "Dog Run",
    "NAME": "Tompkins Square Park Dog Run",
    "SEATING": "",
    "SURFACE": "Natural",
    "FEATURESTA": "Active",
    "NEIGHBORHOOD": "East Village"
  },
  {
    "OBJECTID": 266,
    "ZIPCODE": 11228,
    "BOROUGH": "B",
    "DOG_AREA_T": "Dog Run",
    "NAME": "Dyker Beach Park Dog Run",
    "SEATING": "",
    "SURFACE": "Sand",
    "FEATURESTA": "Active",
    "NEIGHBORHOOD": "Dyker Heights"
  },
  {
    "OBJECTID": 323,
    "ZIPCODE": 11377,
    "BOROUGH": "Q",
    "DOG_AREA_T": "Dog Run",
    "NAME": "Sherry Park Dog Run",
    "SEATING": "",
    "SURFACE": "Concrete",
    "FEATURESTA": "Active",
    "NEIGHBORHOOD": "Woodside"
  },
  {
    "OBJECTID": 280,
    "ZIPCODE": 11220,
    "BOROUGH": "B",
    "DOG_AREA_T": "Dog Run",
    "NAME": "Owl's Head Park Dog Run",
    "SEATING": "",
    "SURFACE": "Sand",
    "FEATURESTA": "Active",
    "NEIGHBORHOOD": "Sunset Park"
  },
  {
    "OBJECTID": 342,
    "ZIPCODE": 11237,
    "BOROUGH": "B",
    "DOG_AREA_T": "Dog Run",
    "NAME": "Maria Hernandez Park Dog Run",
    "SEATING": "Yes",
    "SURFACE": "Sand",
    "FEATURESTA": "Active",
    "NEIGHBORHOOD": "Ridgewood"
  },
  {
    "OBJECTID": 299,
    "ZIPCODE": 10010,
    "BOROUGH": "M",
    "DOG_AREA_T": "Dog Run",
    "NAME": "Madison Square Park Dog Run",
    "SEATING": "",
    "SURFACE": "Natural",
    "FEATURESTA": "Active",
    "NEIGHBORHOOD": "Stuyvesant Park"
  },
  {
    "OBJECTID": "1,992",
    "ZIPCODE": 10280,
    "BOROUGH": "M",
    "DOG_AREA_T": "Dog Run",
    "NAME": "West Thames Street Dog Run",
    "SEATING": "",
    "SURFACE": "Concrete",
    "FEATURESTA": "Active",
    "NEIGHBORHOOD": "Downtown"
  },
  {
    "OBJECTID": 285,
    "ZIPCODE": 10028,
    "BOROUGH": "M",
    "DOG_AREA_T": "Dog Run",
    "NAME": "Carl Schurz Park Large Dog Run",
    "SEATING": "",
    "SURFACE": "Concrete",
    "FEATURESTA": "Active",
    "NEIGHBORHOOD": "Upper East Side"
  },
  {
    "OBJECTID": "1,187",
    "ZIPCODE": 10455,
    "BOROUGH": "X",
    "DOG_AREA_T": "Dog Run",
    "NAME": "Fox Playground Dog Run",
    "SEATING": "",
    "SURFACE": "Stone",
    "FEATURESTA": "Active",
    "NEIGHBORHOOD": "Mott Haven"
  },
  {
    "OBJECTID": 304,
    "ZIPCODE": 10024,
    "BOROUGH": "M",
    "DOG_AREA_T": "Dog Run",
    "NAME": "Riverside Park Dog Run (105th St)",
    "SEATING": "",
    "SURFACE": "Natural",
    "FEATURESTA": "Active",
    "NEIGHBORHOOD": "Upper Westside"
  },
  {
    "OBJECTID": 330,
    "ZIPCODE": 10309,
    "BOROUGH": "R",
    "DOG_AREA_T": "Dog Run",
    "NAME": "Bloomingdale Park Dog Run",
    "SEATING": "Yes",
    "SURFACE": "Natural",
    "FEATURESTA": "Active",
    "NEIGHBORHOOD": "Rossville"
  },
  {
    "OBJECTID": 781,
    "ZIPCODE": 10473,
    "BOROUGH": "X",
    "DOG_AREA_T": "Dog Run",
    "NAME": "Soundview Park Dog Run",
    "SEATING": "Yes",
    "SURFACE": "Sand",
    "FEATURESTA": "Active",
    "NEIGHBORHOOD": "Soundview"
  },
  {
    "OBJECTID": 306,
    "ZIPCODE": 10024,
    "BOROUGH": "M",
    "DOG_AREA_T": "Dog Run",
    "NAME": "Riverside Park Dog Run (72nd St)",
    "SEATING": "",
    "SURFACE": "Sand",
    "FEATURESTA": "Active",
    "NEIGHBORHOOD": "Upper Westside"
  },
  {
    "OBJECTID": "1,588",
    "ZIPCODE": 11211,
    "BOROUGH": "B",
    "DOG_AREA_T": "Dog Run",
    "NAME": "Cooper Park Large Dog Run",
    "SEATING": "Yes",
    "SURFACE": "Sand",
    "FEATURESTA": "Active",
    "NEIGHBORHOOD": "Williamsburg"
  },
  {
    "OBJECTID": 294,
    "ZIPCODE": 10040,
    "BOROUGH": "M",
    "DOG_AREA_T": "Dog Run",
    "NAME": "Highbridge Park Dog Run",
    "SEATING": "",
    "SURFACE": "Natural",
    "FEATURESTA": "Active",
    "NEIGHBORHOOD": "Washington Heights"
  },
  {
    "OBJECTID": "1,182",
    "ZIPCODE": 10280,
    "BOROUGH": "M",
    "DOG_AREA_T": "Dog Run",
    "NAME": "North End Dog Run",
    "SEATING": "Yes",
    "SURFACE": "Concrete",
    "FEATURESTA": "Active",
    "NEIGHBORHOOD": "Downtown"
  },
  {
    "OBJECTID": 325,
    "ZIPCODE": 11373,
    "BOROUGH": "Q",
    "DOG_AREA_T": "Dog Run",
    "NAME": "Veteran's Grove Dog Run",
    "SEATING": "",
    "SURFACE": "Stone",
    "FEATURESTA": "Active",
    "NEIGHBORHOOD": "Elmhurst"
  },
  {
    "OBJECTID": 344,
    "ZIPCODE": 11235,
    "BOROUGH": "B",
    "DOG_AREA_T": "Dog Run",
    "NAME": "Manhattan Beach Dog Run (Oriental Boulevard)",
    "SEATING": "",
    "SURFACE": "Concrete",
    "FEATURESTA": "Active",
    "NEIGHBORHOOD": "Sheepshead Bay"
  },
  {
    "OBJECTID": 256,
    "ZIPCODE": 10471,
    "BOROUGH": "X",
    "DOG_AREA_T": "Dog Run",
    "NAME": "Frank S. Hackett Park Dog Run",
    "SEATING": "",
    "SURFACE": "Concrete",
    "FEATURESTA": "Active",
    "NEIGHBORHOOD": "Fieldston"
  },
  {
    "OBJECTID": 313,
    "ZIPCODE": 10011,
    "BOROUGH": "M",
    "DOG_AREA_T": "Dog Run",
    "NAME": "Washington Square Park Dog Run",
    "SEATING": "",
    "SURFACE": "Sand",
    "FEATURESTA": "Active",
    "NEIGHBORHOOD": "Chelsea"
  },
  {
    "OBJECTID": 370,
    "ZIPCODE": 10019,
    "BOROUGH": "M",
    "DOG_AREA_T": "Dog Run",
    "NAME": "DeWitt Clinton Park Large Dog Run",
    "SEATING": "",
    "SURFACE": "Concrete",
    "FEATURESTA": "Active",
    "NEIGHBORHOOD": "Upper Westside"
  },
  {
    "OBJECTID": 783,
    "ZIPCODE": 10003,
    "BOROUGH": "M",
    "DOG_AREA_T": "Dog Run",
    "NAME": "Stuyvesant Square Dog Park",
    "SEATING": "Yes",
    "SURFACE": "Concrete",
    "FEATURESTA": "Active",
    "NEIGHBORHOOD": "East Village"
  },
  {
    "OBJECTID": 289,
    "ZIPCODE": 10002,
    "BOROUGH": "M",
    "DOG_AREA_T": "Dog Run",
    "NAME": "Corlears Hook Park Dog Run",
    "SEATING": "",
    "SURFACE": "Concrete",
    "FEATURESTA": "Active",
    "NEIGHBORHOOD": "Lower East Side"
  },
  {
    "OBJECTID": 334,
    "ZIPCODE": 10307,
    "BOROUGH": "R",
    "DOG_AREA_T": "Dog Run",
    "NAME": "Conference House Park Dog Run",
    "SEATING": "",
    "SURFACE": "Natural",
    "FEATURESTA": "Active",
    "NEIGHBORHOOD": "Tottenville"
  },
  {
    "OBJECTID": 320,
    "ZIPCODE": 11101,
    "BOROUGH": "Q",
    "DOG_AREA_T": "Dog Run",
    "NAME": "Murray Playground Dog Run",
    "SEATING": "",
    "SURFACE": "Natural",
    "FEATURESTA": "Active",
    "NEIGHBORHOOD": "Sunnyside"
  },
  {
    "OBJECTID": 377,
    "ZIPCODE": 10467,
    "BOROUGH": "X",
    "DOG_AREA_T": "Dog Run",
    "NAME": "Dog Bone Run",
    "SEATING": "",
    "SURFACE": "Concrete",
    "FEATURESTA": "Active",
    "NEIGHBORHOOD": "Van Cortlandt Pk"
  },
  {
    "OBJECTID": "1,184",
    "ZIPCODE": 10022,
    "BOROUGH": "M",
    "DOG_AREA_T": "Dog Run",
    "NAME": "East River Esplanade Waterfront Dog Run",
    "SEATING": "Yes",
    "SURFACE": "Concrete",
    "FEATURESTA": "Active",
    "NEIGHBORHOOD": "Midtown East"
  },
  {
    "OBJECTID": "1,989",
    "ZIPCODE": 10036,
    "BOROUGH": "M",
    "DOG_AREA_T": "Dog Run",
    "NAME": "Pier 84 Dog Run",
    "SEATING": "",
    "SURFACE": "Concrete",
    "FEATURESTA": "Active",
    "NEIGHBORHOOD": "Midtown West"
  },
  {
    "OBJECTID": 308,
    "ZIPCODE": 10031,
    "BOROUGH": "M",
    "DOG_AREA_T": "Dog Run",
    "NAME": "St. Nicholas Park Dog Run",
    "SEATING": "",
    "SURFACE": "Natural",
    "FEATURESTA": "Active",
    "NEIGHBORHOOD": "Hamilton Heights"
  },
  {
    "OBJECTID": "1,189",
    "ZIPCODE": 10032,
    "BOROUGH": "M",
    "DOG_AREA_T": "Dog Run",
    "NAME": "Riverside Park South Dog Run",
    "SEATING": "Yes",
    "SURFACE": "Natural",
    "FEATURESTA": "Active",
    "NEIGHBORHOOD": "Washington Heights"
  },
  {
    "OBJECTID": "1,993",
    "ZIPCODE": 10280,
    "BOROUGH": "M",
    "DOG_AREA_T": "Dog Run",
    "NAME": "Sirius Dog Run",
    "SEATING": "",
    "SURFACE": "Concrete",
    "FEATURESTA": "Active",
    "NEIGHBORHOOD": "Downtown"
  },
  {
    "OBJECTID": 298,
    "ZIPCODE": 10033,
    "BOROUGH": "M",
    "DOG_AREA_T": "Dog Run",
    "NAME": "J. Hood Wright Park Dog Run",
    "SEATING": "",
    "SURFACE": "Sand",
    "FEATURESTA": "Active",
    "NEIGHBORHOOD": "Washington Heights"
  },
  {
    "OBJECTID": 317,
    "ZIPCODE": 11385,
    "BOROUGH": "Q",
    "DOG_AREA_T": "Dog Run",
    "NAME": "Forest Park Dog Run",
    "SEATING": "",
    "SURFACE": "Natural",
    "FEATURESTA": "Active",
    "NEIGHBORHOOD": "Glendale"
  },
  {
    "OBJECTID": 374,
    "ZIPCODE": 10007,
    "BOROUGH": "M",
    "DOG_AREA_T": "Dog Run",
    "NAME": "Tribeca Dog Run",
    "SEATING": "",
    "SURFACE": "Concrete",
    "FEATURESTA": "Active",
    "NEIGHBORHOOD": "Downtown"
  },
  {
    "OBJECTID": 343,
    "ZIPCODE": 11231,
    "BOROUGH": "B",
    "DOG_AREA_T": "Dog Run",
    "NAME": "Dimattina Park Dog Run - South",
    "SEATING": "",
    "SURFACE": "Sand",
    "FEATURESTA": "Active",
    "NEIGHBORHOOD": "Redhook"
  },
  {
    "OBJECTID": 260,
    "ZIPCODE": 10471,
    "BOROUGH": "X",
    "DOG_AREA_T": "Dog Run",
    "NAME": "Seton Park Dog Run",
    "SEATING": "",
    "SURFACE": "Natural",
    "FEATURESTA": "Active",
    "NEIGHBORHOOD": "Fieldston"
  },
  {
    "OBJECTID": 301,
    "ZIPCODE": 10026,
    "BOROUGH": "M",
    "DOG_AREA_T": "Dog Run",
    "NAME": "Morningside Park Dog Run",
    "SEATING": "",
    "SURFACE": "Natural",
    "FEATURESTA": "Active",
    "NEIGHBORHOOD": "Harlem"
  },
  {
    "OBJECTID": 258,
    "ZIPCODE": 10465,
    "BOROUGH": "X",
    "DOG_AREA_T": "Dog Run",
    "NAME": "Pelham Bay Park Dog Run",
    "SEATING": "",
    "SURFACE": "Natural",
    "FEATURESTA": "Active",
    "NEIGHBORHOOD": "Eastchester Bay"
  },
  {
    "OBJECTID": 277,
    "ZIPCODE": 11222,
    "BOROUGH": "B",
    "DOG_AREA_T": "Dog Run",
    "NAME": "McGolrick Park Dog Run",
    "SEATING": "",
    "SURFACE": "Natural",
    "FEATURESTA": "Active",
    "NEIGHBORHOOD": "Little Poland"
  },
  {
    "OBJECTID": 322,
    "ZIPCODE": 11693,
    "BOROUGH": "Q",
    "DOG_AREA_T": "Dog Run",
    "NAME": "Rockaway Freeway Dog Park",
    "SEATING": "",
    "SURFACE": "Grass",
    "FEATURESTA": "Active",
    "NEIGHBORHOOD": "Little Poland"
  },
  {
    "OBJECTID": 379,
    "ZIPCODE": 11104,
    "BOROUGH": "Q",
    "DOG_AREA_T": "Dog Run",
    "NAME": "Lou Lodati Dog Park",
    "SEATING": "",
    "SURFACE": "Concrete",
    "FEATURESTA": "Active",
    "NEIGHBORHOOD": "Sunnyside"
  },
  {
    "OBJECTID": 265,
    "ZIPCODE": 11231,
    "BOROUGH": "B",
    "DOG_AREA_T": "Dog Run",
    "NAME": "DiMattina Park Dog Run - North",
    "SEATING": "",
    "SURFACE": "Sand",
    "FEATURESTA": "Active",
    "NEIGHBORHOOD": "Redhook"
  },
  {
    "OBJECTID": "1,991",
    "ZIPCODE": 10016,
    "BOROUGH": "M",
    "DOG_AREA_T": "Dog Run",
    "NAME": "Bellevue South Park Dog Run",
    "SEATING": "",
    "SURFACE": "Natural",
    "FEATURESTA": "Active",
    "NEIGHBORHOOD": "Midtown East"
  },
  {
    "OBJECTID": 341,
    "ZIPCODE": 11206,
    "BOROUGH": "B",
    "DOG_AREA_T": "Dog Run",
    "NAME": "Sternberg Park Dog Run",
    "SEATING": "",
    "SURFACE": "Natural",
    "FEATURESTA": "Active",
    "NEIGHBORHOOD": "Williamsburg"
  },
  {
    "OBJECTID": 310,
    "ZIPCODE": 10029,
    "BOROUGH": "M",
    "DOG_AREA_T": "Dog Run",
    "NAME": "Thomas Jefferson Park Dog Run",
    "SEATING": "",
    "SURFACE": "Natural",
    "FEATURESTA": "Active",
    "NEIGHBORHOOD": "Harlem"
  },
  {
    "OBJECTID": 286,
    "ZIPCODE": 10028,
    "BOROUGH": "M",
    "DOG_AREA_T": "Dog Run",
    "NAME": "Carl Schurz Park Small Dog Run",
    "SEATING": "",
    "SURFACE": "Concrete",
    "FEATURESTA": "Active",
    "NEIGHBORHOOD": "Upper East Side"
  },
  {
    "OBJECTID": 305,
    "ZIPCODE": 10024,
    "BOROUGH": "M",
    "DOG_AREA_T": "Dog Run",
    "NAME": "Riverside Park Dog Run (87th St)",
    "SEATING": "",
    "SURFACE": "Natural",
    "FEATURESTA": "Active",
    "NEIGHBORHOOD": "Upper Westside"
  },
  {
    "OBJECTID": 267,
    "ZIPCODE": 11216,
    "BOROUGH": "B",
    "DOG_AREA_T": "Dog Run",
    "NAME": "Herbert Von King Park Dog Run",
    "SEATING": "",
    "SURFACE": "Natural",
    "FEATURESTA": "Active",
    "NEIGHBORHOOD": "Bedford Stuyvesant"
  },
  {
    "OBJECTID": 324,
    "ZIPCODE": 11375,
    "BOROUGH": "Q",
    "DOG_AREA_T": "Dog Run",
    "NAME": "Underbridge Playground Dog Run",
    "SEATING": "Yes",
    "SURFACE": "Grass",
    "FEATURESTA": "Active",
    "NEIGHBORHOOD": "Forest Hills"
  },
  {
    "OBJECTID": 381,
    "ZIPCODE": 11201,
    "BOROUGH": "B",
    "DOG_AREA_T": "Dog Run",
    "NAME": "Pier 6 Dog Run",
    "SEATING": "",
    "SURFACE": "Grass",
    "FEATURESTA": "Active",
    "NEIGHBORHOOD": "Downtown Brooklyn"
  },
  {
    "OBJECTID": "1,186",
    "ZIPCODE": 11463,
    "BOROUGH": "X",
    "DOG_AREA_T": "Dog Run",
    "NAME": "Fort Independence Playground Dog Run",
    "SEATING": "Yes",
    "SURFACE": "Natural",
    "FEATURESTA": "Active",
    "NEIGHBORHOOD": "Riverdale"
  },
  {
    "OBJECTID": 312,
    "ZIPCODE": 10003,
    "BOROUGH": "M",
    "DOG_AREA_T": "Dog Run",
    "NAME": "Union Square Park Dog Run",
    "SEATING": "",
    "SURFACE": "Concrete",
    "FEATURESTA": "Active",
    "NEIGHBORHOOD": "East Village"
  },
  {
    "OBJECTID": 369,
    "ZIPCODE": 10019,
    "BOROUGH": "M",
    "DOG_AREA_T": "Dog Run",
    "NAME": "DeWitt Clinton Park Small Dog Run",
    "SEATING": "",
    "SURFACE": "Concrete",
    "FEATURESTA": "Active",
    "NEIGHBORHOOD": "Upper Westside"
  },
  {
    "OBJECTID": 269,
    "ZIPCODE": 11201,
    "BOROUGH": "B",
    "DOG_AREA_T": "Dog Run",
    "NAME": "Hillside Park Dog Run",
    "SEATING": "",
    "SURFACE": "Natural",
    "FEATURESTA": "Active",
    "NEIGHBORHOOD": "Downtown Brooklyn"
  },
  {
    "OBJECTID": "1,188",
    "ZIPCODE": 11218,
    "BOROUGH": "B",
    "DOG_AREA_T": "Dog Run",
    "NAME": "Greenwood Playground Dog Run",
    "SEATING": "",
    "SURFACE": "Natural",
    "FEATURESTA": "Active",
    "NEIGHBORHOOD": "Sunset Park"
  },
  {
    "OBJECTID": 326,
    "ZIPCODE": 11377,
    "BOROUGH": "Q",
    "DOG_AREA_T": "Dog Run",
    "NAME": "Windmuller Park Dog Run",
    "SEATING": "",
    "SURFACE": "Concrete",
    "FEATURESTA": "Active",
    "NEIGHBORHOOD": "Woodside"
  },
  {
    "OBJECTID": 338,
    "ZIPCODE": 10301,
    "BOROUGH": "R",
    "DOG_AREA_T": "Dog Run",
    "NAME": "Silver Lake Park Dog Run",
    "SEATING": "",
    "SURFACE": "Grass",
    "FEATURESTA": "Active",
    "NEIGHBORHOOD": "Silver Lake"
  },
  {
    "OBJECTID": 255,
    "ZIPCODE": 10463,
    "BOROUGH": "X",
    "DOG_AREA_T": "Dog Run",
    "NAME": "Ewen Park Dog Run",
    "SEATING": "",
    "SURFACE": "Natural",
    "FEATURESTA": "Active",
    "NEIGHBORHOOD": "Riverdale"
  },
  {
    "OBJECTID": 782,
    "ZIPCODE": 10031,
    "BOROUGH": "M",
    "DOG_AREA_T": "Dog Run",
    "NAME": "Riverside Park Dog Run (W. 142nd St.)",
    "SEATING": "Yes",
    "SURFACE": "Natural",
    "FEATURESTA": "Active",
    "NEIGHBORHOOD": "Hamilton Heights"
  },
  {
    "OBJECTID": 383,
    "ZIPCODE": 11215,
    "BOROUGH": "B",
    "DOG_AREA_T": "Dog Run",
    "NAME": "Washington Park Dog Run",
    "SEATING": "",
    "SURFACE": "Sand",
    "FEATURESTA": "Active",
    "NEIGHBORHOOD": "South Slope"
  },
  {
    "OBJECTID": 300,
    "ZIPCODE": 10027,
    "BOROUGH": "M",
    "DOG_AREA_T": "Dog Run",
    "NAME": "Marcus Garvey Park Dog Run",
    "SEATING": "",
    "SURFACE": "Natural",
    "FEATURESTA": "Active",
    "NEIGHBORHOOD": "Harlem"
  },
  {
    "OBJECTID": 357,
    "ZIPCODE": 10467,
    "BOROUGH": "X",
    "DOG_AREA_T": "Dog Run",
    "NAME": "Williamsbridge Oval Dog Run",
    "SEATING": "",
    "SURFACE": "Concrete",
    "FEATURESTA": "Active",
    "NEIGHBORHOOD": "Van Cortlandt Pk"
  },
  {
    "OBJECTID": 376,
    "ZIPCODE": 10470,
    "BOROUGH": "X",
    "DOG_AREA_T": "Dog Run",
    "NAME": "Oneida Run",
    "SEATING": "",
    "SURFACE": "Natural",
    "FEATURESTA": "Active",
    "NEIGHBORHOOD": "Wakefield"
  },
  {
    "OBJECTID": 288,
    "ZIPCODE": 10002,
    "BOROUGH": "M",
    "DOG_AREA_T": "Dog Run",
    "NAME": "Coleman Oval Park Dog Run",
    "SEATING": "Yes",
    "SURFACE": "Concrete",
    "FEATURESTA": "Active",
    "NEIGHBORHOOD": "Lower East Side"
  },
  {
    "OBJECTID": 307,
    "ZIPCODE": 10017,
    "BOROUGH": "M",
    "DOG_AREA_T": "Dog Run",
    "NAME": "Robert Moses Playground Dog Run",
    "SEATING": "",
    "SURFACE": "Stone",
    "FEATURESTA": "Active",
    "NEIGHBORHOOD": "Midtown Manhattan"
  },
  {
    "OBJECTID": 281,
    "ZIPCODE": 11201,
    "BOROUGH": "B",
    "DOG_AREA_T": "Dog Run",
    "NAME": "Adam Yauch Park Dog Run",
    "SEATING": "",
    "SURFACE": "Concrete",
    "FEATURESTA": "Active",
    "NEIGHBORHOOD": "Downtown Brooklyn"
  },
  {
    "OBJECTID": "1,988",
    "ZIPCODE": 10007,
    "BOROUGH": "M",
    "DOG_AREA_T": "Dog Run",
    "NAME": "Tribeca Dog Park",
    "SEATING": "",
    "SURFACE": "Concrete",
    "FEATURESTA": "Active",
    "NEIGHBORHOOD": "Downtown"
  },
  {
    "OBJECTID": 293,
    "ZIPCODE": 10040,
    "BOROUGH": "M",
    "DOG_AREA_T": "Dog Run",
    "NAME": "Fort Tryon Park Dog Run",
    "SEATING": "",
    "SURFACE": "Natural",
    "FEATURESTA": "Active",
    "NEIGHBORHOOD": "Washington Heights"
  },
  {
    "OBJECTID": 378,
    "ZIPCODE": 10034,
    "BOROUGH": "M",
    "DOG_AREA_T": "Dog Run",
    "NAME": "Homer's Dog Run",
    "SEATING": "",
    "SURFACE": "Natural",
    "FEATURESTA": "Active",
    "NEIGHBORHOOD": "Washington Heights"
  },
  {
    "OBJECTID": 257,
    "ZIPCODE": 10451,
    "BOROUGH": "X",
    "DOG_AREA_T": "Dog Run",
    "NAME": "Franz Sigel Park Dog Run",
    "SEATING": "",
    "SURFACE": "Natural",
    "FEATURESTA": "Active",
    "NEIGHBORHOOD": "Melrose"
  },
  {
    "OBJECTID": 371,
    "ZIPCODE": 10032,
    "BOROUGH": "M",
    "DOG_AREA_T": "Dog Run",
    "NAME": "The Rocky Run",
    "SEATING": "Yes",
    "SURFACE": "Natural",
    "FEATURESTA": "Active",
    "NEIGHBORHOOD": "Washington Heights"
  },
  {
    "OBJECTID": 340,
    "ZIPCODE": 10312,
    "BOROUGH": "R",
    "DOG_AREA_T": "Dog Run",
    "NAME": "Wolfe's Pond Park Dog Run",
    "SEATING": "",
    "SURFACE": "Sand",
    "FEATURESTA": "Active",
    "NEIGHBORHOOD": "Great Kills"
  },
  {
    "OBJECTID": 302,
    "ZIPCODE": 10022,
    "BOROUGH": "M",
    "DOG_AREA_T": "Dog Run",
    "NAME": "Peter Detmold Park Dog Run",
    "SEATING": "Yes",
    "SURFACE": "Stone",
    "FEATURESTA": "Active",
    "NEIGHBORHOOD": "Midtown East"
  },
  {
    "OBJECTID": 359,
    "ZIPCODE": 11201,
    "BOROUGH": "B",
    "DOG_AREA_T": "Dog Run",
    "NAME": "Brooklyn Bridge Park Dog Run",
    "SEATING": "",
    "SURFACE": "Concrete",
    "FEATURESTA": "Active",
    "NEIGHBORHOOD": "Downtown Brooklyn"
  },
  {
    "OBJECTID": 276,
    "ZIPCODE": 11211,
    "BOROUGH": "B",
    "DOG_AREA_T": "Dog Run",
    "NAME": "McCarren Park Dog Run",
    "SEATING": "",
    "SURFACE": "Natural",
    "FEATURESTA": "Active",
    "NEIGHBORHOOD": "Williamsburg"
  },
  {
    "OBJECTID": 784,
    "ZIPCODE": 10011,
    "BOROUGH": "M",
    "DOG_AREA_T": "Dog Run",
    "NAME": "Robin Kovary Run for Small Dogs",
    "SEATING": "Yes",
    "SURFACE": "Natural",
    "FEATURESTA": "Active",
    "NEIGHBORHOOD": "Chelsea"
  },
  {
    "OBJECTID": "1,589",
    "ZIPCODE": 11211,
    "BOROUGH": "B",
    "DOG_AREA_T": "Dog Run",
    "NAME": "Cooper Park Small Dog Run",
    "SEATING": "Yes",
    "SURFACE": "Sand",
    "FEATURESTA": "Active",
    "NEIGHBORHOOD": "Williamsburg"
  },
  {
    "OBJECTID": 309,
    "ZIPCODE": 10024,
    "BOROUGH": "M",
    "DOG_AREA_T": "Dog Run",
    "NAME": "Theodore Roosevelt Park Dog Run",
    "SEATING": "",
    "SURFACE": "Sand",
    "FEATURESTA": "Active",
    "NEIGHBORHOOD": "Upper Westside"
  },
  {
    "OBJECTID": "1,990",
    "ZIPCODE": 10312,
    "BOROUGH": "R",
    "DOG_AREA_T": "Dog Run",
    "NAME": "Ida Court Dog Run",
    "SEATING": "",
    "SURFACE": "Natural",
    "FEATURESTA": "Active",
    "NEIGHBORHOOD": "Great Kills"
  },
  {
    "OBJECTID": 380,
    "ZIPCODE": 11101,
    "BOROUGH": "Q",
    "DOG_AREA_T": "Dog Run",
    "NAME": "Hunters Point South Park Dog Run",
    "SEATING": "",
    "SURFACE": "Concrete",
    "FEATURESTA": "Active",
    "NEIGHBORHOOD": "Sunnyside"
  },
  {
    "OBJECTID": "1,185",
    "ZIPCODE": 11415,
    "BOROUGH": "Q",
    "DOG_AREA_T": "Dog Run",
    "NAME": "Overlook Dog Park / The Barking Lot",
    "SEATING": "",
    "SURFACE": "Natural",
    "FEATURESTA": "Active",
    "NEIGHBORHOOD": "Kew Gardens"
  },
  {
    "OBJECTID": 316,
    "ZIPCODE": 11423,
    "BOROUGH": "Q",
    "DOG_AREA_T": "Dog Run",
    "NAME": "Cunningham Park Dog Run",
    "SEATING": "",
    "SURFACE": "Natural",
    "FEATURESTA": "Active",
    "NEIGHBORHOOD": "Jamaica Estates"
  },
  {
    "OBJECTID": 779,
    "ZIPCODE": 10454,
    "BOROUGH": "X",
    "DOG_AREA_T": "Dog Run",
    "NAME": "St. Mary's Park Dog Run",
    "SEATING": "No",
    "SURFACE": "Natural",
    "FEATURESTA": "Active",
    "NEIGHBORHOOD": "Mott Haven"
  },
  {
    "OBJECTID": 290,
    "ZIPCODE": 10065,
    "BOROUGH": "M",
    "DOG_AREA_T": "Dog Run",
    "NAME": "Andrew Haswell Green Dog Run",
    "SEATING": "Yes",
    "SURFACE": "Natural",
    "FEATURESTA": "Active",
    "NEIGHBORHOOD": "Upper East Side"
  }
]